NORAD_CAT_ID,OBJECT_NAME,OBJECT_TYPE,EPOCH,MEAN_MOTION,ECCENTRICITY,INCLINATION,RA_OF_ASC_NODE,ARG_OF_PERICENTER,MEAN_ANOMALY,BSTAR,MEAN_MOTION_DOT,MEAN_MOTION_DDOT,TLE_LINE0,TLE_LINE1,TLE_LINE2,SEMIMAJOR_AXIS,PERIOD,APOGEE,PERIGEE,DECAYED
56478.0,STARLINK-6041,PAYLOAD,2024-04-16 22:50:03,14.983349,0.0002965,69.9999,68.5732,268.3206,91.7614,1.7976e-05,1.22e-06,0.0,0 STARLINK-6041,1 56478U 23064AG  24107.95143159  .00000122  00000-0  17976-4 0  9995,2 56478  69.9999  68.5732 0002965 268.3206  91.7614 14.98334900 52122,6950.178,96.107,574.103,569.982,0.0
56478.0,STARLINK-6041,PAYLOAD,2024-04-17 05:14:35,14.98343456,0.0002805,70.0002,67.9009,265.6274,94.4565,9.6074e-05,1.054e-05,0.0,0 STARLINK-6041,1 56478U 23064AG  24108.21846276  .00001054  00000-0  96074-4 0  9996,2 56478  70.0002  67.9009 0002805 265.6274  94.4565 14.98343456 52523,6950.151,96.106,573.966,570.067,0.0
56478.0,STARLINK-6041,PAYLOAD,2024-04-18 03:40:29,14.98320536,0.0003026,70.0002,65.5436,267.5665,92.5147,-0.00013577,-1.712e-05,0.0,0 STARLINK-6041,1 56478U 23064AG  24109.15312428 -.00001712  00000-0 -13577-3 0  9996,2 56478  70.0002  65.5436 0003026 267.5665  92.5147 14.98320536 52666,6950.222,96.108,574.19,569.984,0.0
56478.0,STARLINK-6041,PAYLOAD,2024-04-18 06:52:46,14.98320633,0.0003092,70.0,65.2071,270.5597,89.5207,-0.00012228,-1.551e-05,0.0,0 STARLINK-6041,1 56478U 23064AG  24109.28664501 -.00001551  00000-0 -12228-3 0  9995,2 56478  70.0000  65.2071 0003092 270.5597  89.5207 14.98320633 52321,6950.222,96.108,574.236,569.938,0.0
56478.0,STARLINK-6041,PAYLOAD,2024-04-18 21:17:58,14.98330121,0.00032,69.9999,63.6916,272.7742,87.3051,-3.8905e-05,-5.57e-06,0.0,0 STARLINK-6041,1 56478U 23064AG  24109.88747772 -.00000557  00000-0 -38905-4 0  9999,2 56478  69.9999  63.6916 0003200 272.7742  87.3051 14.98330121 52777,6950.193,96.107,574.282,569.833,0.0
56478.0,STARLINK-6041,PAYLOAD,2024-04-18 22:54:06,14.9833213,0.0003142,70.0001,63.5229,272.7797,87.3002,-2.4985e-05,-3.91e-06,0.0,0 STARLINK-6041,1 56478U 23064AG  24109.95423615 -.00000391  00000-0 -24985-4 0  9993,2 56478  70.0001  63.5229 0003142 272.7797  87.3002 14.98332130 52425,6950.186,96.107,574.235,569.868,0.0
56478.0,STARLINK-6041,PAYLOAD,2024-04-19 05:18:37,14.98346243,0.0003029,70.0002,62.8503,268.2803,91.8009,2.1262e-05,1.61e-06,0.0,0 STARLINK-6041,1 56478U 23064AG  24110.22126491  .00000161  00000-0  21262-4 0  9995,2 56478  70.0002  62.8503 0003029 268.2803  91.8009 14.98346243 52826,6950.143,96.106,574.113,569.902,0.0
56478.0,STARLINK-6041,PAYLOAD,2024-04-19 06:54:45,14.98348705,0.0003077,70.0003,62.6827,267.6768,92.4038,3.1793e-05,2.87e-06,0.0,0 STARLINK-6041,1 56478U 23064AG  24110.28802230  .00000287  00000-0  31793-4 0  9992,2 56478  70.0003  62.6827 0003077 267.6768  92.4038 14.98348705 52475,6950.135,96.106,574.139,569.861,0.0
56478.0,STARLINK-6041,PAYLOAD,2024-04-19 21:19:58,14.9832772,0.0002764,70.0012,61.1686,266.4425,93.6418,0.00017899,2.043e-05,0.0,0 STARLINK-6041,1 56478U 23064AG  24110.88886963  .00002043  00000-0  17899-3 0  9995,2 56478  70.0012  61.1686 0002764 266.4425  93.6418 14.98327720 52920,6950.2,96.107,573.986,570.144,0.0
56478.0,STARLINK-6041,PAYLOAD,2024-04-20 05:20:37,14.98339586,0.000207,70.003,60.3286,243.9046,116.19,0.00033592,3.918e-05,0.0,0 STARLINK-6041,1 56478U 23064AG  24111.22265674  .00003918  00000-0  33592-3 0  9994,2 56478  70.0030  60.3286 0002070 243.9046 116.1900 14.98339586 52971,6950.163,96.106,573.467,570.59,0.0
56478.0,STARLINK-6041,PAYLOAD,2024-04-20 06:56:45,14.98339729,0.0002077,70.003,60.1601,242.4882,117.6066,0.0003295,3.842e-05,0.0,0 STARLINK-6041,1 56478U 23064AG  24111.28941630  .00003842  00000-0  32950-3 0  9996,2 56478  70.0030  60.1601 0002077 242.4882 117.6066 14.98339729 52629,6950.163,96.106,573.471,570.584,0.0
56478.0,STARLINK-6041,PAYLOAD,2024-04-20 19:45:53,14.98313286,0.0001853,70.0033,58.8143,260.8073,99.2877,-0.0002465,-3.031e-05,0.0,0 STARLINK-6041,1 56478U 23064AG  24111.82353220 -.00003031  00000-0 -24650-3 0  9998,2 56478  70.0033  58.8143 0001853 260.8073  99.2877 14.98313286 53068,6950.245,96.108,573.397,570.822,0.0
56478.0,STARLINK-6041,PAYLOAD,2024-04-21 03:46:35,14.98296783,0.0002057,70.0028,57.9709,255.8754,104.2176,-0.00042927,-5.206e-05,0.0,0 STARLINK-6041,1 56478U 23064AG  24112.15735167 -.00005206  00000-0 -42927-3 0  9992,2 56478  70.0028  57.9709 0002057 255.8754 104.2176 14.98296783 53114,6950.296,96.109,573.59,570.731,0.0
56478.0,STARLINK-6041,PAYLOAD,2024-04-21 06:58:51,14.98300752,0.0002358,70.002,57.633,269.1194,90.9695,-0.00039006,-4.74e-05,0.0,0 STARLINK-6041,1 56478U 23064AG  24112.29087046 -.00004740  00000-0 -39006-3 0  9999,2 56478  70.0020  57.6330 0002358 269.1194  90.9695 14.98300752 52773,6950.283,96.109,573.787,570.509,0.0
56478.0,STARLINK-6041,PAYLOAD,2024-04-21 21:24:01,14.98332541,0.000271,70.0026,56.1229,270.2974,89.7874,-0.00015538,-1.946e-05,0.0,0 STARLINK-6041,1 56478U 23064AG  24112.89168714 -.00001946  00000-0 -15538-3 0  9996,2 56478  70.0026  56.1229 0002710 270.2974  89.7874 14.98332541 53228,6950.185,96.107,573.934,570.167,0.0
56478.0,STARLINK-6041,PAYLOAD,2024-04-21 23:00:09,14.98331883,0.0002663,70.0033,55.9533,275.3845,84.701,-0.00011846,-1.506e-05,0.0,0 STARLINK-6041,1 56478U 23064AG  24112.95844679 -.00001506  00000-0 -11846-3 0  9994,2 56478  70.0033  55.9533 0002663 275.3845  84.7010 14.98331883 52876,6950.187,96.107,573.903,570.201,0.0
56478.0,STARLINK-6041,PAYLOAD,2024-04-22 03:48:32,14.9834093,0.0002287,70.005,55.4492,203.0463,157.0594,2.8977e-05,2.53e-06,0.0,0 STARLINK-6041,1 56478U 23064AG  24113.15871443  .00000253  00000-0  28977-4 0  9996,2 56478  70.0050  55.4492 0002287 203.0463 157.0594 14.98340930 53268,6950.159,96.106,573.614,570.435,0.0
56478.0,STARLINK-6041,PAYLOAD,2024-04-22 05:24:40,14.98344966,0.0002123,70.0045,55.2803,212.045,148.058,6.2449e-05,6.53e-06,0.0,0 STARLINK-6041,1 56478U 23064AG  24113.22547076  .00000653  00000-0  62449-4 0  9992,2 56478  70.0045  55.2803 0002123 212.0450 148.0580 14.98344966 52910,6950.147,96.106,573.487,570.536,0.0
56478.0,STARLINK-6041,PAYLOAD,2024-04-22 19:49:53,14.98315883,0.000152,70.0051,53.767,262.6589,97.4397,0.00050907,5.984e-05,0.0,0 STARLINK-6041,1 56478U 23064AG  24113.82631632  .00005984  00000-0  50907-3 0  9997,2 56478  70.0051  53.7670 0001520 262.6589  97.4397 14.98315883 53365,6950.237,96.108,573.158,571.045,0.0
56478.0,STARLINK-6041,PAYLOAD,2024-04-22 23:02:10,14.98310464,0.0002585,70.0045,53.431,264.2911,95.7953,0.00040226,4.708e-05,0.0,0 STARLINK-6041,1 56478U 23064AG  24113.95984266  .00004708  00000-0  40226-3 0  9991,2 56478  70.0045  53.4310 0002585 264.2911  95.7953 14.98310464 53027,6950.253,96.108,573.915,570.322,0.0
56478.0,STARLINK-6041,PAYLOAD,2024-04-23 03:50:34,14.98313079,0.0002965,70.001,52.9198,269.5256,90.5563,0.0003293,3.837e-05,0.0,0 STARLINK-6041,1 56478U 23064AG  24114.16012477  .00003837  00000-0  32930-3 0  9996,2 56478  70.0010  52.9198 0002965 269.5256  90.5563 14.98313079 53417,6950.245,96.108,574.171,570.049,0.0
56478.0,STARLINK-6041,PAYLOAD,2024-04-23 05:26:42,14.98316487,0.0002739,70.0012,52.7512,262.9249,97.1599,0.00031251,3.636e-05,0.0,0 STARLINK-6041,1 56478U 23064AG  24114.22688417  .00003636  00000-0  31251-3 0  9998,2 56478  70.0012  52.7512 0002739 262.9249  97.1599 14.98316487 53064,6950.235,96.108,574.003,570.196,0.0
56478.0,STARLINK-6041,PAYLOAD,2024-04-23 21:28:03,14.98340998,0.0002635,70.0016,51.0694,257.7647,102.3218,-0.00014479,-1.821e-05,0.0,0 STARLINK-6041,1 56478U 23064AG  24114.89448162 -.00001821  00000-0 -14479-3 0  9991,2 56478  70.0016  51.0694 0002635 257.7647 102.3218 14.98340998 53522,6950.159,96.106,573.855,570.193,0.0
56478.0,STARLINK-6041,PAYLOAD,2024-04-24 03:52:34,14.98346957,0.0002553,70.002,50.3966,249.5824,110.5061,-0.0001089,-1.393e-05,0.0,0 STARLINK-6041,1 56478U 23064AG  24115.16151438 -.00001393  00000-0 -10890-3 0  9996,2 56478  70.0020  50.3966 0002553 249.5824 110.5061 14.98346957 53568,6950.14,96.106,573.78,570.231,0.0
56478.0,STARLINK-6041,PAYLOAD,2024-04-24 05:28:42,14.98345498,0.0002634,70.0019,50.2278,261.2111,98.875,-3.6867e-05,-5.33e-06,0.0,0 STARLINK-6041,1 56478U 23064AG  24115.22827309 -.00000533  00000-0 -36867-4 0  9998,2 56478  70.0019  50.2278 0002634 261.2111  98.8750 14.98345498 53215,6950.145,96.106,573.841,570.179,0.0
56478.0,STARLINK-6041,PAYLOAD,2024-04-24 21:30:03,14.98334885,0.0002474,70.0023,48.5452,254.1973,105.8913,-0.00012417,-1.574e-05,0.0,0 STARLINK-6041,1 56478U 23064AG  24115.89587937 -.00001574  00000-0 -12417-3 0  9991,2 56478  70.0023  48.5452 0002474 254.1973 105.8913 14.98334885 53671,6950.178,96.107,573.762,570.323,0.0
56478.0,STARLINK-6041,PAYLOAD,2024-04-25 05:30:44,14.98328721,0.0002528,70.0026,47.7044,259.1706,100.9169,-7.1816e-06,-1.79e-06,0.0,0 STARLINK-6041,1 56478U 23064AG  24116.22967950 -.00000179  00000-0 -71816-5 0  9996,2 56478  70.0026  47.7044 0002528 259.1706 100.9169 14.98328721 53368,6950.197,96.107,573.819,570.305,0.0
56478.0,STARLINK-6041,PAYLOAD,2024-04-25 21:32:04,14.98332257,0.0002664,70.0021,46.0207,262.8771,97.2085,1.2769e-05,5.9e-07,0.0,0 STARLINK-6041,1 56478U 23064AG  24116.89727628  .00000059  00000-0  12769-4 0  9991,2 56478  70.0021  46.0207 0002664 262.8771  97.2085 14.98332257 53825,6950.186,96.107,573.902,570.199,0.0
56478.0,STARLINK-6041,PAYLOAD,2024-04-26 11:57:17,14.98336846,0.00019,70.0047,44.5005,304.9031,55.195,-5.6131e-05,-7.63e-06,0.0,0 STARLINK-6041,1 56478U 23064AG  24117.49811668 -.00000763  00000-0 -56131-4 0  9991,2 56478  70.0047  44.5005 0001900 304.9031  55.1950 14.98336846 53553,6950.172,96.107,573.357,570.716,0.0
56478.0,STARLINK-6041,PAYLOAD,2024-04-26 19:57:57,14.98328798,0.0002654,70.0021,43.6634,269.5243,90.5612,8.9071e-05,9.7e-06,0.0,0 STARLINK-6041,1 56478U 23064AG  24117.83191305  .00000970  00000-0  89071-4 0  9995,2 56478  70.0021  43.6634 0002654 269.5243  90.5612 14.98328798 53602,6950.197,96.107,573.906,570.217,0.0
